[{"OBJECT_NAME":"IRIDIUM 178","OBJECT_ID":"2023-068V","EPOCH":"2026-03-09T22:29:43.646208","MEAN_MOTION":14.80237854,"ECCENTRICITY":0.00024806,"INCLINATION":86.6486,"RA_OF_ASC_NODE":66.834,"ARG_OF_PERICENTER":100.7522,"MEAN_ANOMALY":259.3979,"EPHEMERIS_TYPE":0,"CLASSIFICATION_TYPE":"U","NORAD_CAT_ID":56729,"ELEMENT_SET_NO":999,"REV_AT_EPOCH":15168,"BSTAR":8.8663606e-5,"MEAN_MOTION_DOT":7.0e-6,"MEAN_MOTION_DDOT":0},{"OBJECT_NAME":"IRIDIUM 33 DEB","OBJECT_ID":"1997-051ST","EPOCH":"2026-03-07T21:30:34.542432","MEAN_MOTION":14.77906491,"ECCENTRICITY":0.0011118,"INCLINATION":86.3242,"RA_OF_ASC_NODE":296.5068,"ARG_OF_PERICENTER":321.559,"MEAN_ANOMALY":38.4837,"EPHEMERIS_TYPE":0,"CLASSIFICATION_TYPE":"U","NORAD_CAT_ID":35809,"ELEMENT_SET_NO":999,"REV_AT_EPOCH":88064,"BSTAR":0.0019374861,"MEAN_MOTION_DOT":0.00013997,"MEAN_MOTION_DDOT":0}]
